1 99999U 26001A   26088.86541890  .00000000  00000-0  00000-0 0  9999
2 99999  97.4413  37.8993 0001455  86.8236 262.2581 15.17878271  5235

1 99999U 26001A   26088.93075211  .00000000  00000-0  00000-0 0  9996
2 99999  97.4413  37.9637 0001455  85.3379 260.5204 15.17887934  5243

1 99999U 26001A   26089.41191142  .00000000  00000-0  00000-0 0  9992
2 99999  97.4413  38.4379 0001414  74.5249  18.9595 15.17971300  5310

1 99999U 26001A   26089.85504854  .00000000  00000-0  00000-0 0  9998
2 99999  97.4413  38.8746 0001504  66.6236 286.9640 15.18035416  5385

1 99999U 26001A   26089.91919750  .00000000  00000-0  00000-0 0  9990
2 99999  97.4413  38.9379 0001520  65.1455 278.7880 15.18044104  5393

1 99999U 26001A   26090.40099130  .00000000  00000-0  00000-0 0  9997
2 99999  97.4412  39.4128 0001558  54.9925  40.3039 15.18128562  5467

1 99999U 26001A   26090.46678484  .00000000  00000-0  00000-0 0  9998
2 99999  97.4412  39.4777 0001572  53.8603  40.7842 15.18139227  5471

1 99999U 26001A   26090.90776785  .00000000  00000-0  00000-0 0  9990
2 99999  97.4412  39.9124 0001717  47.9618 295.2882 15.18202047  5543

1 99999U 26001A   26091.39017947  .00000000  00000-0  00000-0 0  9992
2 99999  97.4411  40.3881 0001818  39.5575  58.7049 15.18287685  5615

1 99999U 26001A   26091.45506467  .00000000  00000-0  00000-0 0  9999
2 99999  97.4411  40.4521 0001832  38.7797  53.9069 15.18298641  5624

1 99999U 26001A   26091.89640838  .00000000  00000-0  00000-0 0  9998
2 99999  97.4411  40.8872 0002004  34.6447 308.8716 15.18362755  5692

1 99999U 26001A   26092.37990550  .00000000  00000-0  00000-0 0  9991
2 99999  97.4411  41.3641 0002163  27.8875  76.8448 15.18439854  5764

1 99999U 26001A   26092.44346225  .00000000  00000-0  00000-0 0  9993
2 99999  97.4411  41.4268 0002175  27.2826  64.6522 15.18449838  5775

1 99999U 26001A   26092.88511078  .00000000  00000-0  00000-0 0  9991
2 99999  97.4410  41.8623 0002368  24.2936 320.3687 15.18504886  5843

1 99999U 26001A   26093.43190427  .00000000  00000-0  00000-0 0  9994
2 99999  97.4410  42.4017 0002573  18.5365  73.3973 15.18589879  5924

1 99999U 26001A   26093.87389505  .00000000  00000-0  00000-0 0  9999
2 99999  97.4409  42.8377 0002768  16.3540 330.4002 15.18645938  5998

1 99999U 26001A   26093.94021507  .00000000  00000-0  00000-0 0  9992
2 99999  97.4409  42.9031 0002794  15.8713 333.2315 15.18655607  6006

1 99999U 26001A   26094.42037143  .00000000  00000-0  00000-0 0  9999
2 99999  97.4409  43.3769 0002994  11.7172  80.8534 15.18731103  6076

1 99999U 26001A   26094.86281084  .00000000  00000-0  00000-0 0  9992
2 99999  97.4409  43.8134 0003187  10.0082 340.0593 15.18788349  6142

1 99999U 26001A   26094.92781738  .00000000  00000-0  00000-0 0  9990
2 99999  97.4409  43.8776 0003219   9.6419 335.6311 15.18796952  6156

1 99999U 26001A   26095.40886984  .00000000  00000-0  00000-0 0  9993
2 99999  97.4408  44.3523 0003427   6.1701  87.7127 15.18873477  6224

1 99999U 26001A   26095.47552745  .00000000  00000-0  00000-0 0  9995
2 99999  97.4408  44.4181 0003461   5.8514  92.2773 15.18882971  6239

1 99999U 26001A   26095.85206499  .00000000  00000-0  00000-0 0  9999
2 99999  97.4408  44.7897 0003616   4.7238 351.0131 15.18932150  6306

1 99999U 26001A   26095.91573115  .00000000  00000-0  00000-0 0  9998
2 99999  97.4408  44.8525 0003652   4.4603 339.1907 15.18939843  6313

1 99999U 26001A   26096.39743797  .00000000  00000-0  00000-0 0  9996
2 99999  97.4407  45.3280 0003868   1.4883  94.5966 15.19016947  6377

1 99999U 26001A   26096.46289053  .00000000  00000-0  00000-0 0  9994
2 99999  97.4407  45.3926 0003895   1.2001  92.5798 15.19026767  6387

1 99999U 26001A   26096.90377856  .00000000  00000-0  00000-0 0  9992
2 99999  97.4407  45.8278 0004089   0.0060 343.2641 15.19084126  6465

1 99999U 26001A   26097.38620929  .00000000  00000-0  00000-0 0  9997
2 99999  97.4406  46.3041 0004311 357.4190 102.4920 15.19161421  6525

1 99999U 26001A   26097.45068022  .00000000  00000-0  00000-0 0  9995
2 99999  97.4406  46.3678 0004334 357.1412  95.1337 15.19171563  6539

1 99999U 26001A   26097.89191511  .00000000  00000-0  00000-0 0  9993
2 99999  97.4406  46.8034 0004526 356.0691 347.8220 15.19229737  6614

1 99999U 26001A   26098.43856947  .00000000  00000-0  00000-0 0  9995
2 99999  97.4405  47.3432 0004773 353.5069  98.3241 15.19317447  6680

